NORAD_CAT_ID,OBJECT_NAME,OBJECT_TYPE,EPOCH,MEAN_MOTION,ECCENTRICITY,INCLINATION,RA_OF_ASC_NODE,ARG_OF_PERICENTER,MEAN_ANOMALY,BSTAR,MEAN_MOTION_DOT,MEAN_MOTION_DDOT,TLE_LINE0,TLE_LINE1,TLE_LINE2,SEMIMAJOR_AXIS,PERIOD,APOGEE,PERIGEE,DECAYED
55769.0,STARLINK-5584,PAYLOAD,2024-02-02 03:57:13,14.98332162,0.0002492,70.0018,357.2,252.6591,107.4295,-0.00014332,-1.803e-05,0.0,0 STARLINK-5584,1 55769U 23028AE  24033.16474345 -.00001803  00000-0 -14332-3 0  9993,2 55769  70.0018 357.2000 0002492 252.6591 107.4295 14.98332162 51704,6950.186,96.107,573.783,570.319,0.0
55769.0,STARLINK-5584,PAYLOAD,2024-02-02 07:09:29,14.98333577,0.000244,70.0018,356.8632,264.78,95.308,-0.00011642,-1.482e-05,0.0,0 STARLINK-5584,1 55769U 23028AE  24033.29826263 -.00001482  00000-0 -11642-3 0  9991,2 55769  70.0018 356.8632 0002440 264.7800  95.3080 14.98333577 51731,6950.182,96.107,573.743,570.351,0.0
55769.0,STARLINK-5584,PAYLOAD,2024-02-02 21:34:42,14.98318418,0.0002794,70.0007,355.3474,260.5618,99.5225,0.00014788,1.671e-05,0.0,0 STARLINK-5584,1 55769U 23028AE  24033.89910440  .00001671  00000-0  14788-3 0  9990,2 55769  70.0007 355.3474 0002794 260.5618  99.5225 14.98318418 51824,6950.229,96.108,574.036,570.152,0.0
55769.0,STARLINK-5584,PAYLOAD,2024-02-03 03:59:14,14.98319395,0.0002792,70.0007,354.6739,260.335,99.7493,0.00014501,1.637e-05,0.0,0 STARLINK-5584,1 55769U 23028AE  24034.16614562  .00001637  00000-0  14501-3 0  9992,2 55769  70.0007 354.6739 0002792 260.3350  99.7493 14.98319395 51856,6950.226,96.108,574.031,570.15,0.0
55769.0,STARLINK-5584,PAYLOAD,2024-02-03 07:11:30,14.98322864,0.000276,70.0007,354.3371,261.5049,98.5798,0.00017706,2.02e-05,0.0,0 STARLINK-5584,1 55769U 23028AE  24034.29966325  .00002020  00000-0  17706-3 0  9990,2 55769  70.0007 354.3371 0002760 261.5049  98.5798 14.98322864 51881,6950.215,96.107,573.998,570.162,0.0
55769.0,STARLINK-5584,PAYLOAD,2024-02-03 21:36:44,14.98323565,0.0002507,70.0012,352.8216,262.6376,97.4498,-3.4854e-05,-5.09e-06,0.0,0 STARLINK-5584,1 55769U 23028AE  24034.90051198 -.00000509  00000-0 -34854-4 0  9997,2 55769  70.0012 352.8216 0002507 262.6376  97.4498 14.98323565 51976,6950.213,96.107,573.82,570.335,0.0
55769.0,STARLINK-5584,PAYLOAD,2024-02-04 04:01:16,14.98323269,0.0002542,70.0011,352.1484,261.5801,98.5069,-3.9421e-05,-5.63e-06,0.0,0 STARLINK-5584,1 55769U 23028AE  24035.16755317 -.00000563  00000-0 -39421-4 0  9995,2 55769  70.0011 352.1484 0002542 261.5801  98.5069 14.98323269 52007,6950.214,96.107,573.845,570.312,0.0
55769.0,STARLINK-5584,PAYLOAD,2024-02-04 07:13:32,14.98323518,0.0002544,70.0013,351.8123,260.2594,99.8278,-4.4457e-05,-6.23e-06,0.0,0 STARLINK-5584,1 55769U 23028AE  24035.30107381 -.00000623  00000-0 -44457-4 0  9995,2 55769  70.0013 351.8123 0002544 260.2594  99.8278 14.98323518 52038,6950.213,96.107,573.846,570.31,0.0
55769.0,STARLINK-5584,PAYLOAD,2024-02-04 21:38:44,14.98334085,0.0002856,70.0005,350.297,259.9701,100.1135,4.5336e-05,4.48e-06,0.0,0 STARLINK-5584,1 55769U 23028AE  24035.90190389  .00000448  00000-0  45336-4 0  9991,2 55769  70.0005 350.2970 0002856 259.9701 100.1135 14.98334085 52122,6950.18,96.107,574.03,570.06,0.0
55769.0,STARLINK-5584,PAYLOAD,2024-02-05 04:03:16,14.98339902,0.0002776,70.0007,349.6238,260.7777,99.3068,0.00011923,1.33e-05,0.0,0 STARLINK-5584,1 55769U 23028AE  24036.16893734  .00001330  00000-0  11923-3 0  9999,2 55769  70.0007 349.6238 0002776 260.7777  99.3068 14.98339902 52157,6950.162,96.106,573.957,570.098,0.0
55769.0,STARLINK-5584,PAYLOAD,2024-02-05 13:40:05,14.98327291,0.0001579,70.0038,348.6134,273.9052,86.1927,0.00013494,1.517e-05,0.0,0 STARLINK-5584,1 55769U 23028AE  24036.56950669  .00001517  00000-0  13494-3 0  9996,2 55769  70.0038 348.6134 0001579 273.9052  86.1927 14.98327291 52221,6950.201,96.107,573.164,570.969,0.0
55769.0,STARLINK-5584,PAYLOAD,2024-02-05 21:40:45,14.982807,0.0002328,70.0038,347.7745,261.7014,98.3882,0.0008871,0.00010494,0.0,0 STARLINK-5584,1 55769U 23028AE  24036.90330648  .00010494  00000-0  88710-3 0  9990,2 55769  70.0038 347.7745 0002328 261.7014  98.3882 14.98280700 52278,6950.345,96.11,573.828,570.592,0.0
55769.0,STARLINK-5584,PAYLOAD,2024-02-06 05:41:25,14.98329451,0.0002595,70.0011,346.9301,263.6657,96.4207,0.00010617,1.174e-05,0.0,0 STARLINK-5584,1 55769U 23028AE  24037.23710185  .00001174  00000-0  10617-3 0  9991,2 55769  70.0011 346.9301 0002595 263.6657  96.4207 14.98329451 52321,6950.195,96.107,573.863,570.256,0.0
55769.0,STARLINK-5584,PAYLOAD,2024-02-06 21:42:46,14.98323405,0.000264,70.0015,345.2478,263.9523,96.1335,0.00011762,1.31e-05,0.0,0 STARLINK-5584,1 55769U 23028AE  24037.90470253  .00001310  00000-0  11762-3 0  9998,2 55769  70.0015 345.2478 0002640 263.9523  96.1335 14.98323405 52421,6950.213,96.107,573.913,570.243,0.0
55769.0,STARLINK-5584,PAYLOAD,2024-02-07 04:07:18,14.98330482,0.0002587,70.0015,344.5747,261.1397,98.9469,2.7439e-05,2.34e-06,0.0,0 STARLINK-5584,1 55769U 23028AE  24038.17174092  .00000234  00000-0  27439-4 0  9993,2 55769  70.0015 344.5747 0002587 261.1397  98.9469 14.98330482 52455,6950.191,96.107,573.854,570.258,0.0
55769.0,STARLINK-5584,PAYLOAD,2024-02-07 13:44:07,14.98329763,0.0001669,70.0034,343.5628,291.2583,68.8398,-0.00019134,-2.375e-05,0.0,0 STARLINK-5584,1 55769U 23028AE  24038.57230807 -.00002375  00000-0 -19134-3 0  9996,2 55769  70.0034 343.5628 0001669 291.2583  68.8398 14.98329763 52529,6950.194,96.107,573.219,570.899,0.0
55769.0,STARLINK-5584,PAYLOAD,2024-02-07 21:44:47,14.98319406,0.0002819,70.0031,342.7197,269.0223,91.0613,1.7445e-05,1.15e-06,0.0,0 STARLINK-5584,1 55769U 23028AE  24038.90610604  .00000115  00000-0  17445-4 0  9992,2 55769  70.0031 342.7197 0002819 269.0223  91.0613 14.98319406 52576,6950.226,96.108,574.05,570.131,0.0
55769.0,STARLINK-5584,PAYLOAD,2024-02-08 04:09:19,14.98327125,0.0002414,70.0016,342.0494,253.328,106.7614,-4.1802e-05,-5.92e-06,0.0,0 STARLINK-5584,1 55769U 23028AE  24039.17314410 -.00000592  00000-0 -41802-4 0  9993,2 55769  70.0016 342.0494 0002414 253.3280 106.7614 14.98327125 52608,6950.202,96.107,573.745,570.389,0.0
55769.0,STARLINK-5584,PAYLOAD,2024-02-08 05:45:27,14.98328321,0.000244,70.0016,341.8811,253.9811,106.1079,-2.743e-05,-4.2e-06,0.0,0 STARLINK-5584,1 55769U 23028AE  24039.23990304 -.00000420  00000-0 -27430-4 0  9993,2 55769  70.0016 341.8811 0002440 253.9811 106.1079 14.98328321 52623,6950.198,96.107,573.759,570.367,0.0
55769.0,STARLINK-5584,PAYLOAD,2024-02-08 21:46:48,14.98329193,0.0002622,70.0012,340.1989,259.0583,101.0281,-3.7719e-05,-5.43e-06,0.0,0 STARLINK-5584,1 55769U 23028AE  24039.90750335 -.00000543  00000-0 -37719-4 0  9992,2 55769  70.0012 340.1989 0002622 259.0583 101.0281 14.98329193 52720,6950.195,96.107,573.883,570.238,0.0
55769.0,STARLINK-5584,PAYLOAD,2024-02-09 04:11:20,14.98333029,0.0002456,70.0015,339.5259,254.8043,105.2845,1.778e-05,1.19e-06,0.0,0 STARLINK-5584,1 55769U 23028AE  24040.17453929  .00000119  00000-0  17780-4 0  9995,2 55769  70.0015 339.5259 0002456 254.8043 105.2845 14.98333029 52752,6950.184,96.107,573.755,570.342,0.0
55769.0,STARLINK-5584,PAYLOAD,2024-02-09 05:47:28,14.98333192,0.0002371,70.0014,339.3561,267.4378,92.651,2.5717e-05,2.14e-06,0.0,0 STARLINK-5584,1 55769U 23028AE  24040.24129984  .00000214  00000-0  25717-4 0  9999,2 55769  70.0014 339.3561 0002371 267.4378  92.6510 14.98333192 52773,6950.183,96.107,573.696,570.4,0.0
55769.0,STARLINK-5584,PAYLOAD,2024-02-10 02:37:13,14.98325407,0.0002548,70.0013,337.1678,264.0537,96.0332,5.4276e-06,-2.8e-07,0.0,0 STARLINK-5584,1 55769U 23028AE  24041.10918625 -.00000028  00000-0  54276-5 0  9990,2 55769  70.0013 337.1678 0002548 264.0537  96.0332 14.98325407 52896,6950.207,96.107,573.843,570.301,0.0
55769.0,STARLINK-5584,PAYLOAD,2024-02-10 05:49:29,14.98330499,0.0002495,70.0011,336.8308,263.573,96.5145,5.6117e-05,5.77e-06,0.0,0 STARLINK-5584,1 55769U 23028AE  24041.24270167  .00000577  00000-0  56117-4 0  9990,2 55769  70.0011 336.8308 0002495 263.5730  96.5145 14.98330499 52928,6950.191,96.107,573.79,570.322,0.0
55769.0,STARLINK-5584,PAYLOAD,2024-02-10 20:14:42,14.98332584,0.0002412,70.0011,335.3158,263.1712,96.9173,-1.7586e-05,-3.03e-06,0.0,0 STARLINK-5584,1 55769U 23028AE  24041.84354239 -.00000303  00000-0 -17586-4 0  9995,2 55769  70.0011 335.3158 0002412 263.1712  96.9173 14.98332584 53002,6950.185,96.107,573.726,570.374,0.0
55769.0,STARLINK-5584,PAYLOAD,2024-02-10 21:50:50,14.98330692,0.000249,70.001,335.1474,265.5127,94.5747,-1.952e-06,-1.16e-06,0.0,0 STARLINK-5584,1 55769U 23028AE  24041.91030287 -.00000116  00000-0 -19520-5 0  9990,2 55769  70.0010 335.1474 0002490 265.5127  94.5747 14.98330692 53023,6950.191,96.107,573.786,570.325,0.0
55769.0,STARLINK-5584,PAYLOAD,2024-02-11 05:51:30,14.98331207,0.0002405,70.0015,334.3065,255.0115,105.0778,3.9877e-05,3.83e-06,0.0,0 STARLINK-5584,1 55769U 23028AE  24042.24410078  .00000383  00000-0  39877-4 0  9997,2 55769  70.0015 334.3065 0002405 255.0115 105.0778 14.98331207 53072,6950.189,96.107,573.726,570.383,0.0
55769.0,STARLINK-5584,PAYLOAD,2024-02-11 20:16:42,14.98330588,0.0002554,70.0012,332.7921,252.8696,107.2183,5.9836e-05,6.21e-06,0.0,0 STARLINK-5584,1 55769U 23028AE  24042.84493927  .00000621  00000-0  59836-4 0  9999,2 55769  70.0012 332.7921 0002554 252.8696 107.2183 14.98330588 53150,6950.191,96.107,573.831,570.281,0.0
55769.0,STARLINK-5584,PAYLOAD,2024-02-11 21:52:50,14.98330394,0.0002461,70.0013,332.6232,254.1687,105.9201,7.0392e-05,7.47e-06,0.0,0 STARLINK-5584,1 55769U 23028AE  24042.91169855  .00000747  00000-0  70392-4 0  9996,2 55769  70.0013 332.6232 0002461 254.1687 105.9201 14.98330394 53170,6950.192,96.107,573.767,570.346,0.0
55769.0,STARLINK-5584,PAYLOAD,2024-02-12 05:53:30,14.98337481,0.0002229,70.0014,331.7821,255.5504,104.5408,0.0001054,1.165e-05,0.0,0 STARLINK-5584,1 55769U 23028AE  24043.24549316  .00001165  00000-0  10540-3 0  9990,2 55769  70.0014 331.7821 0002229 255.5504 104.5408 14.98337481 53213,6950.17,96.107,573.584,570.486,0.0
